start=new Date('2022-03-10T00:00:00.000Z').valueOf();
sats=[{"APOAPSIS":"481.199","OBJECT_TYPE":"PAYLOAD","LAUNCH_DATE":"2021-12-18","PERIOD":"94.205","DECAY_DATE":null,"OBJECT_NAME":"STARLINK-3305","SEMIMAJOR_AXIS":"6858.167","INCLINATION":"53.2175","EPHEMERIS_TYPE":"0","MEAN_ANOMALY":"143.8840","CLASSIFICATION_TYPE":"U","ARG_OF_PERICENTER":"47.9083","NORAD_CAT_ID":"50166","EPOCH":"2022-03-09T22:00:01.999584","COUNTRY_CODE":"US","REF_FRAME":"TEME","MEAN_MOTION_DDOT":"0.0000000000000","TIME_SYSTEM":"UTC","BSTAR":"-0.02508800000000","REV_AT_EPOCH":"365","PERIAPSIS":"478.865","ELEMENT_SET_NO":"999","FILE":"3352875","RA_OF_ASC_NODE":"327.8125","ECCENTRICITY":"0.00017020","TLE_LINE1":"1 50166U 21125L   22068.91668981 -.00656775  00000-0 -25088-1 0  9997","RCS_SIZE":"LARGE","GP_ID":"198362713","MEAN_ELEMENT_THEORY":"SGP4","CENTER_NAME":"EARTH","OBJECT_ID":"2021-125L","TLE_LINE2":"2 50166  53.2175 327.8125 0001702  47.9083 143.8840 15.28588856  3650","MEAN_MOTION":"15.28588856","MEAN_MOTION_DOT":"-0.00656775","SITE":"AFWTR"},{"MEAN_MOTION_DOT":"-0.00034316","SITE":"AFWTR","TLE_LINE2":"2 50167  53.2185 336.7720 0002067  46.5053  92.7420 15.08835501  3600","MEAN_MOTION":"15.08835501","RCS_SIZE":"LARGE","GP_ID":"198362964","MEAN_ELEMENT_THEORY":"SGP4","CENTER_NAME":"EARTH","OBJECT_ID":"2021-125M","ELEMENT_SET_NO":"999","FILE":"3352875","RA_OF_ASC_NODE":"336.7720","ECCENTRICITY":"0.00020670","TLE_LINE1":"1 50167U 21125M   22068.91668981 -.00034316  00000-0 -21485-2 0  9997","REF_FRAME":"TEME","COUNTRY_CODE":"US","EPOCH":"2022-03-09T22:00:01.999584","MEAN_MOTION_DDOT":"0.0000000000000","TIME_SYSTEM":"UTC","BSTAR":"-0.00214850000000","REV_AT_EPOCH":"360","PERIAPSIS":"538.329","CLASSIFICATION_TYPE":"U","ARG_OF_PERICENTER":"46.5053","NORAD_CAT_ID":"50167","SEMIMAJOR_AXIS":"6917.894","INCLINATION":"53.2185","EPHEMERIS_TYPE":"0","MEAN_ANOMALY":"92.7420","APOAPSIS":"541.189","OBJECT_TYPE":"PAYLOAD","LAUNCH_DATE":"2021-12-18","DECAY_DATE":null,"PERIOD":"95.438","OBJECT_NAME":"STARLINK-3271"},{"ELEMENT_SET_NO":"999","FILE":"3352875","RA_OF_ASC_NODE":"327.8123","TLE_LINE1":"1 50168U 21125N   22068.91668981 -.00656505  00000-0 -24988-1 0  9998","ECCENTRICITY":"0.00017360","RCS_SIZE":"LARGE","GP_ID":"198361712","CENTER_NAME":"EARTH","MEAN_ELEMENT_THEORY":"SGP4","OBJECT_ID":"2021-125N","TLE_LINE2":"2 50168  53.2175 327.8123 0001736  47.0860 158.8397 15.28703880  3650","MEAN_MOTION":"15.28703880","MEAN_MOTION_DOT":"-0.00656505","SITE":"AFWTR","OBJECT_TYPE":"PAYLOAD","APOAPSIS":"480.878","LAUNCH_DATE":"2021-12-18","DECAY_DATE":null,"PERIOD":"94.197","OBJECT_NAME":"STARLINK-3296","SEMIMAJOR_AXIS":"6857.823","INCLINATION":"53.2175","EPHEMERIS_TYPE":"0","MEAN_ANOMALY":"158.8397","CLASSIFICATION_TYPE":"U","ARG_OF_PERICENTER":"47.0860","NORAD_CAT_ID":"50168","COUNTRY_CODE":"US","REF_FRAME":"TEME","EPOCH":"2022-03-09T22:00:01.999584","MEAN_MOTION_DDOT":"0.0000000000000","TIME_SYSTEM":"UTC","BSTAR":"-0.02498800000000","REV_AT_EPOCH":"365","PERIAPSIS":"478.497"},{"RCS_SIZE":"LARGE","CENTER_NAME":"EARTH","GP_ID":"198361962","MEAN_ELEMENT_THEORY":"SGP4","OBJECT_ID":"2021-125P","ELEMENT_SET_NO":"999","RA_OF_ASC_NODE":"327.8083","ECCENTRICITY":"0.00015930","TLE_LINE1":"1 50169U 21125P   22068.91668981 -.00658550  00000-0 -24367-1 0  9992","FILE":"3352875","MEAN_MOTION_DOT":"-0.00658550","SITE":"AFWTR","TLE_LINE2":"2 50169  53.2174 327.8083 0001593  45.6232 272.1427 15.29626522  3655","MEAN_MOTION":"15.29626522","SEMIMAJOR_AXIS":"6855.065","INCLINATION":"53.2174","EPHEMERIS_TYPE":"0","MEAN_ANOMALY":"272.1427","LAUNCH_DATE":"2021-12-18","OBJECT_TYPE":"PAYLOAD","APOAPSIS":"478.022","PERIOD":"94.141","DECAY_DATE":null,"OBJECT_NAME":"STARLINK-3301","MEAN_MOTION_DDOT":"0.0000000000000","TIME_SYSTEM":"UTC","REF_FRAME":"TEME","COUNTRY_CODE":"US","EPOCH":"2022-03-09T22:00:01.999584","PERIAPSIS":"475.838","BSTAR":"-0.02436700000000","REV_AT_EPOCH":"365","CLASSIFICATION_TYPE":"U","NORAD_CAT_ID":"50169","ARG_OF_PERICENTER":"45.6232"},{"ELEMENT_SET_NO":"999","FILE":"3352875","TLE_LINE1":"1 50170U 21125Q   22068.91668981 -.00656529  00000-0 -24812-1 0  9993","ECCENTRICITY":"0.00017190","RA_OF_ASC_NODE":"327.8118","RCS_SIZE":"LARGE","OBJECT_ID":"2021-125Q","GP_ID":"198362213","MEAN_ELEMENT_THEORY":"SGP4","CENTER_NAME":"EARTH","TLE_LINE2":"2 50170  53.2174 327.8118 0001719  47.0894 187.0008 15.28934261  3656","MEAN_MOTION":"15.28934261","MEAN_MOTION_DOT":"-0.00656529","SITE":"AFWTR","OBJECT_TYPE":"PAYLOAD","APOAPSIS":"480.178","LAUNCH_DATE":"2021-12-18","PERIOD":"94.183","DECAY_DATE":null,"OBJECT_NAME":"STARLINK-3245","SEMIMAJOR_AXIS":"6857.134","MEAN_ANOMALY":"187.0008","INCLINATION":"53.2174","EPHEMERIS_TYPE":"0","CLASSIFICATION_TYPE":"U","ARG_OF_PERICENTER":"47.0894","NORAD_CAT_ID":"50170","REF_FRAME":"TEME","COUNTRY_CODE":"US","EPOCH":"2022-03-09T22:00:01.999584","TIME_SYSTEM":"UTC","MEAN_MOTION_DDOT":"0.0000000000000","REV_AT_EPOCH":"365","BSTAR":"-0.02481200000000","PERIAPSIS":"477.820"},{"RCS_SIZE":"LARGE","OBJECT_ID":"2021-125R","CENTER_NAME":"EARTH","GP_ID":"198362464","MEAN_ELEMENT_THEORY":"SGP4","ELEMENT_SET_NO":"999","ECCENTRICITY":"0.00018450","TLE_LINE1":"1 50171U 21125R   22068.91668981 -.00656984  00000-0 -25185-1 0  9993","RA_OF_ASC_NODE":"327.8126","FILE":"3352875","MEAN_MOTION_DOT":"-0.00656984","SITE":"AFWTR","TLE_LINE2":"2 50171  53.2175 327.8126 0001845  42.1025 135.5223 15.28473826  3651","MEAN_MOTION":"15.28473826","SEMIMAJOR_AXIS":"6858.511","MEAN_ANOMALY":"135.5223","EPHEMERIS_TYPE":"0","INCLINATION":"53.2175","LAUNCH_DATE":"2021-12-18","APOAPSIS":"481.641","OBJECT_TYPE":"PAYLOAD","DECAY_DATE":null,"PERIOD":"94.212","OBJECT_NAME":"STARLINK-3286","TIME_SYSTEM":"UTC","MEAN_MOTION_DDOT":"0.0000000000000","REF_FRAME":"TEME","COUNTRY_CODE":"US","EPOCH":"2022-03-09T22:00:01.999584","PERIAPSIS":"479.111","REV_AT_EPOCH":"365","BSTAR":"-0.02518500000000","CLASSIFICATION_TYPE":"U","NORAD_CAT_ID":"50171","ARG_OF_PERICENTER":"42.1025"},{"SITE":"AFWTR","MEAN_MOTION_DOT":"-0.00656977","MEAN_MOTION":"15.29164919","TLE_LINE2":"2 50172  53.2174 327.8109 0001893  38.3244 223.7939 15.29164919  3650","GP_ID":"198361212","MEAN_ELEMENT_THEORY":"SGP4","CENTER_NAME":"EARTH","OBJECT_ID":"2021-125S","RCS_SIZE":"LARGE","FILE":"3352875","RA_OF_ASC_NODE":"327.8109","ECCENTRICITY":"0.00018930","TLE_LINE1":"1 50172U 21125S   22068.91668981 -.00656977  00000-0 -24653-1 0  9995","ELEMENT_SET_NO":"999","BSTAR":"-0.02465300000000","REV_AT_EPOCH":"365","PERIAPSIS":"477.011","COUNTRY_CODE":"US","REF_FRAME":"TEME","EPOCH":"2022-03-09T22:00:01.999584","MEAN_MOTION_DDOT":"0.0000000000000","TIME_SYSTEM":"UTC","ARG_OF_PERICENTER":"38.3244","NORAD_CAT_ID":"50172","CLASSIFICATION_TYPE":"U","EPHEMERIS_TYPE":"0","INCLINATION":"53.2174","MEAN_ANOMALY":"223.7939","SEMIMAJOR_AXIS":"6856.444","DECAY_DATE":null,"PERIOD":"94.169","OBJECT_NAME":"STARLINK-3287","OBJECT_TYPE":"PAYLOAD","APOAPSIS":"479.607","LAUNCH_DATE":"2021-12-18"},{"MEAN_MOTION_DOT":"-0.00308456","SITE":"AFWTR","TLE_LINE2":"2 50173  53.2175 326.0858 0006152 282.8068 177.4874 15.49696303  3671","MEAN_MOTION":"15.49696303","RCS_SIZE":"LARGE","GP_ID":"198361462","MEAN_ELEMENT_THEORY":"SGP4","CENTER_NAME":"EARTH","OBJECT_ID":"2021-125T","ELEMENT_SET_NO":"999","RA_OF_ASC_NODE":"326.0858","TLE_LINE1":"1 50173U 21125T   22068.91668981 -.00308456  00000-0 -56745-2 0  9990","ECCENTRICITY":"0.00061520","FILE":"3352875","MEAN_MOTION_DDOT":"0.0000000000000","TIME_SYSTEM":"UTC","REF_FRAME":"TEME","COUNTRY_CODE":"US","EPOCH":"2022-03-09T22:00:01.999584","PERIAPSIS":"413.435","BSTAR":"-0.00567450000000","REV_AT_EPOCH":"367","CLASSIFICATION_TYPE":"U","NORAD_CAT_ID":"50173","ARG_OF_PERICENTER":"282.8068","SEMIMAJOR_AXIS":"6795.751","INCLINATION":"53.2175","EPHEMERIS_TYPE":"0","MEAN_ANOMALY":"177.4874","LAUNCH_DATE":"2021-12-18","APOAPSIS":"421.797","OBJECT_TYPE":"PAYLOAD","PERIOD":"92.921","DECAY_DATE":null,"OBJECT_NAME":"STARLINK-3289"},{"APOAPSIS":"478.380","OBJECT_TYPE":"PAYLOAD","LAUNCH_DATE":"2021-12-18","PERIOD":"94.148","DECAY_DATE":null,"OBJECT_NAME":"STARLINK-3292","SEMIMAJOR_AXIS":"6855.410","MEAN_ANOMALY":"256.8355","EPHEMERIS_TYPE":"0","INCLINATION":"53.2173","CLASSIFICATION_TYPE":"U","ARG_OF_PERICENTER":"47.0696","NORAD_CAT_ID":"50174","EPOCH":"2022-03-09T22:00:01.999584","COUNTRY_CODE":"US","REF_FRAME":"TEME","TIME_SYSTEM":"UTC","MEAN_MOTION_DDOT":"0.0000000000000","REV_AT_EPOCH":"365","BSTAR":"-0.02444300000000","PERIAPSIS":"476.169","ELEMENT_SET_NO":"999","FILE":"3352875","ECCENTRICITY":"0.00016130","TLE_LINE1":"1 50174U 21125U   22068.91668981 -.00658269  00000-0 -24443-1 0  9990","RA_OF_ASC_NODE":"327.8090","RCS_SIZE":"MEDIUM","OBJECT_ID":"2021-125U","GP_ID":"198362714","MEAN_ELEMENT_THEORY":"SGP4","CENTER_NAME":"EARTH","TLE_LINE2":"2 50174  53.2173 327.8090 0001613  47.0696 256.8355 15.29511181  3654","MEAN_MOTION":"15.29511181","MEAN_MOTION_DOT":"-0.00658269","SITE":"AFWTR"},{"FILE":"3352875","ECCENTRICITY":"0.00016650","TLE_LINE1":"1 50175U 21125V   22068.91668981 -.00656340  00000-0 -24893-1 0  9998","RA_OF_ASC_NODE":"327.8121","ELEMENT_SET_NO":"999","OBJECT_ID":"2021-125V","GP_ID":"198362965","CENTER_NAME":"EARTH","MEAN_ELEMENT_THEORY":"SGP4","RCS_SIZE":"LARGE","MEAN_MOTION":"15.28818999","TLE_LINE2":"2 50175  53.2175 327.8121 0001665  51.0940 168.9309 15.28818999  3654","SITE":"AFWTR","MEAN_MOTION_DOT":"-0.00656340","PERIOD":"94.190","DECAY_DATE":null,"OBJECT_NAME":"STARLINK-3291","APOAPSIS":"480.485","OBJECT_TYPE":"PAYLOAD","LAUNCH_DATE":"2021-12-18","MEAN_ANOMALY":"168.9309","EPHEMERIS_TYPE":"0","INCLINATION":"53.2175","SEMIMAJOR_AXIS":"6857.479","ARG_OF_PERICENTER":"51.0940","NORAD_CAT_ID":"50175","CLASSIFICATION_TYPE":"U","REV_AT_EPOCH":"365","BSTAR":"-0.02489300000000","PERIAPSIS":"478.202","COUNTRY_CODE":"US","EPOCH":"2022-03-09T22:00:01.999584","REF_FRAME":"TEME","TIME_SYSTEM":"UTC","MEAN_MOTION_DDOT":"0.0000000000000"}];
